NORAD_CAT_ID,OBJECT_NAME,OBJECT_TYPE,EPOCH,MEAN_MOTION,ECCENTRICITY,INCLINATION,RA_OF_ASC_NODE,ARG_OF_PERICENTER,MEAN_ANOMALY,BSTAR,MEAN_MOTION_DOT,MEAN_MOTION_DDOT,TLE_LINE0,TLE_LINE1,TLE_LINE2,SEMIMAJOR_AXIS,PERIOD,APOGEE,PERIGEE,DECAYED
49766.0,STARLINK-3190,PAYLOAD,2022-02-17 22:00:00,15.40513567,0.0002936,53.2173,314.6605,18.2675,61.4387,-0.0017862,-0.00073295,0.0,0 STARLINK-3190,1 49766U 21115AU  22048.91667824 -.00073295  00000-0 -17862-2 0  9995,2 49766  53.2173 314.6605 0002936  18.2675  61.4387 15.40513567  3615,6822.73,93.475,446.598,442.591,0.0
49766.0,STARLINK-3190,PAYLOAD,2022-02-18 06:00:00,15.40472164,0.0003073,53.2167,313.0904,14.8137,114.5135,-0.001329,-0.00054696,0.0,0 STARLINK-3190,1 49766U 21115AU  22049.25001157 -.00054696  00000-0 -13290-2 0  9999,2 49766  53.2167 313.0904 0003073  14.8137 114.5135 15.40472164 13171,6822.852,93.478,446.81300000000016,442.62,0.0
49766.0,STARLINK-3190,PAYLOAD,2022-02-18 14:00:01,15.40386365,0.0002779,53.2166,311.5182,16.4308,162.4887,0.0005723,0.00023146,0.0,0 STARLINK-3190,1 49766U 21115AU  22049.58334491  .00023146  00000-0  57230-3 0  9992,2 49766  53.2166 311.5182 0002779  16.4308 162.4887 15.40386365  3656,6823.105,93.483,446.866,443.074,0.0
49766.0,STARLINK-3190,PAYLOAD,2022-02-18 20:00:01,15.40403181,0.0002861,53.2169,310.341,19.7081,106.3301,0.00032716,0.00013048,0.0,0 STARLINK-3190,1 49766U 21115AU  22049.83334491  .00013048  00000-0  32716-3 0  9992,2 49766  53.2169 310.3410 0002861  19.7081 106.3301 15.40403181  3627,6823.055,93.482,446.87300000000016,442.968,0.0
49766.0,STARLINK-3190,PAYLOAD,2022-02-19 06:00:00,15.40430493,0.0003065,53.2165,308.3791,17.8055,260.1497,0.0011338,0.00046462,0.0,0 STARLINK-3190,1 49766U 21115AU  22050.25001157  .00046462  00000-0  11338-2 0  9992,2 49766  53.2165 308.3791 0003065  17.8055 260.1497 15.40430493 13339,6822.975,93.48,446.931,442.749,0.0
49766.0,STARLINK-3190,PAYLOAD,2022-02-19 14:00:01,15.40478931,0.0002794,53.2167,306.8066,16.8947,310.6743,0.00067734,0.00027569,0.0,0 STARLINK-3190,1 49766U 21115AU  22050.58334491  .00027569  00000-0  67734-3 0  9997,2 49766  53.2167 306.8066 0002794  16.8947 310.6743 15.40478931 13385,6822.831999999999,93.477,446.603,442.791,0.0
49766.0,STARLINK-3190,PAYLOAD,2022-02-19 22:00:00,15.40511017,0.0002962,53.2168,305.2373,17.0135,0.1779,-0.0018109,-0.00074288,0.0,0 STARLINK-3190,1 49766U 21115AU  22050.91667824 -.00074288  00000-0 -18109-2 0  9996,2 49766  53.2168 305.2373 0002962  17.0135   0.1779 15.40511017  3628,6822.736999999999,93.475,446.62300000000016,442.581,0.0
49766.0,STARLINK-3190,PAYLOAD,2022-02-20 06:00:00,15.40466294,0.0003095,53.2166,303.6669,14.7353,52.0723,-0.00060419,-0.00025177,0.0,0 STARLINK-3190,1 49766U 21115AU  22051.25001157 -.00025177  00000-0 -60419-3 0  9990,2 49766  53.2166 303.6669 0003095  14.7353  52.0723 15.40466294 13486,6822.869000000002,93.478,446.846,442.622,0.0
49766.0,STARLINK-3190,PAYLOAD,2022-02-20 14:00:01,15.40427231,0.0002901999999999,53.217,302.0944,17.8209,98.5804,0.00059536,0.00024131,0.0,0 STARLINK-3190,1 49766U 21115AU  22051.58334491  .00024131  00000-0  59536-3 0  9991,2 49766  53.2170 302.0944 0002902  17.8209  98.5804 15.40427231  3617,6822.984,93.481,446.83,442.869,0.0
49766.0,STARLINK-3190,PAYLOAD,2022-02-20 22:00:00,15.40429575,0.0003135,53.2171,300.5254,20.18,145.7768,0.00026166,0.0001036,0.0,0 STARLINK-3190,1 49766U 21115AU  22051.91667824  .00010360  00000-0  26166-3 0  9999,2 49766  53.2171 300.5254 0003135  20.1800 145.7768 15.40429575  3615,6822.978,93.48,446.982,442.704,0.0
49766.0,STARLINK-3190,PAYLOAD,2022-02-21 06:00:00,15.40470747,0.0003198,53.2169,298.9549,18.506,196.999,-0.00093556,-0.00038702,0.0,0 STARLINK-3190,1 49766U 21115AU  22052.25001157 -.00038702  00000-0 -93556-3 0  9997,2 49766  53.2169 298.9549 0003198  18.5060 196.9990 15.40470747 13632,6822.856,93.478,446.903,442.539,0.0
49766.0,STARLINK-3190,PAYLOAD,2022-02-21 22:00:00,15.40445221,0.0003216,53.217,295.8137,18.5101,296.1386,0.00028135,0.00011178,0.0,0 STARLINK-3190,1 49766U 21115AU  22052.91667824  .00011178  00000-0  28135-3 0  9996,2 49766  53.2170 295.8137 0003216  18.5101 296.1386 15.40445221 13743,6822.931,93.479,446.991,442.602,0.0
49766.0,STARLINK-3190,PAYLOAD,2022-02-22 14:00:01,15.40488228,0.0003013,53.2166,292.6706,19.1103,34.7885,0.00051042,0.00020663,0.0,0 STARLINK-3190,1 49766U 21115AU  22053.58334491  .00020663  00000-0  51042-3 0  9993,2 49766  53.2166 292.6706 0003013  19.1103  34.7885 15.40488228 13844,6822.804,93.477,446.725,442.614,0.0
49766.0,STARLINK-3190,PAYLOAD,2022-02-22 22:00:00,15.40502813,0.0003172,53.2165,291.1018,16.625999999999998,86.9162,-0.00092915,-0.00038481,0.0,0 STARLINK-3190,1 49766U 21115AU  22053.91667824 -.00038481  00000-0 -92915-3 0  9992,2 49766  53.2165 291.1018 0003172  16.6260  86.9162 15.40502813  3646,6822.761,93.476,446.79,442.462,0.0
49766.0,STARLINK-3190,PAYLOAD,2022-02-23 06:00:00,15.40493595,0.0003166,53.2161,289.5308,13.8621,139.2903,-0.0011687,-0.00048222,0.0,0 STARLINK-3190,1 49766U 21115AU  22054.25001157 -.00048222  00000-0 -11687-2 0  9991,2 49766  53.2161 289.5308 0003166  13.8621 139.2903 15.40493595 13943,6822.7890000000025,93.477,446.814,442.49300000000005,0.0
49766.0,STARLINK-3190,PAYLOAD,2022-02-23 14:00:01,15.40440296,0.0002913,53.2161,287.9587,14.4024,188.3471,8.528399999999999e-05,3.102e-05,0.0,0 STARLINK-3190,1 49766U 21115AU  22054.58334491  .00003102  00000-0  85284-4 0  9999,2 49766  53.2161 287.9587 0002913  14.4024 188.3471 15.40440296  3660,6822.946,93.48,446.798,442.823,0.0
49766.0,STARLINK-3190,PAYLOAD,2022-02-23 22:00:00,15.40420841,0.000317,53.2163,286.3901,14.2218,238.0848,-0.00053269,-0.00022221,0.0,0 STARLINK-3190,1 49766U 21115AU  22054.91667824 -.00022221  00000-0 -53269-3 0  9997,2 49766  53.2163 286.3901 0003170  14.2218 238.0848 15.40420841  3647,6823.003000000002,93.481,447.031,442.705,0.0
49766.0,STARLINK-3190,PAYLOAD,2022-02-24 14:00:01,15.40425715,0.0002944,53.2162,283.2473,15.156,336.241,0.0016340999999999,0.00067316,0.0,0 STARLINK-3190,1 49766U 21115AU  22055.58334491  .00067316  00000-0  16341-2 0  9993,2 49766  53.2162 283.2473 0002944  15.1560 336.2410 15.40425715  3645,6822.989000000001,93.481,446.86300000000006,442.845,0.0
49766.0,STARLINK-3190,PAYLOAD,2022-02-24 22:00:00,15.40479515,0.0003193,53.2164,281.6784,14.1559,26.8952,-0.00041866,-0.00017595,0.0,0 STARLINK-3190,1 49766U 21115AU  22055.91667824 -.00017595  00000-0 -41866-3 0  9996,2 49766  53.2164 281.6784 0003193  14.1559  26.8952 15.40479515  3615,6822.83,93.477,446.874,442.517,0.0
49766.0,STARLINK-3190,PAYLOAD,2022-02-25 06:00:00,15.40500078,0.0003204,53.2164,280.1074,13.8014,76.84899999999998,-0.0020329,-0.00083222,0.0,0 STARLINK-3190,1 49766U 21115AU  22056.25001157 -.00083222  00000-0 -20329-2 0  9995,2 49766  53.2164 280.1074 0003204  13.8014  76.8490 15.40500078 14259,6822.769,93.476,446.82,442.448,0.0
49766.0,STARLINK-3190,PAYLOAD,2022-02-25 14:00:01,15.40434962,0.0003037,53.2167,278.5355,17.2344,123.0082,0.00018007,7.002e-05,0.0,0 STARLINK-3190,1 49766U 21115AU  22056.58334491  .00007002  00000-0  18007-3 0  9992,2 49766  53.2167 278.5355 0003037  17.2344 123.0082 15.40434962  3633,6822.962,93.48,446.899,442.755,0.0
49766.0,STARLINK-3190,PAYLOAD,2022-02-25 22:00:00,15.40424763,0.0003313,53.2168,276.9669,15.5928,174.2209,0.00032962,0.00013159,0.0,0 STARLINK-3190,1 49766U 21115AU  22056.91667824  .00013159  00000-0  32962-3 0  9994,2 49766  53.2168 276.9669 0003313  15.5928 174.2209 15.40424763 14358,6822.9919999999975,93.481,447.117,442.596,0.0
49766.0,STARLINK-3190,PAYLOAD,2022-02-26 14:00:01,15.40447618,0.0003166,53.217,273.8241,17.9285,271.002,0.0010743,0.00044014,0.0,0 STARLINK-3190,1 49766U 21115AU  22057.58334491  .00044014  00000-0  10743-2 0  9995,2 49766  53.2170 273.8241 0003166  17.9285 271.0020 15.40447618  3642,6822.924,93.479,446.949,442.629,0.0
49766.0,STARLINK-3190,PAYLOAD,2022-02-26 22:00:00,15.40465127,0.0003455,53.217,272.2556,17.1554,321.3656,-0.00055214,-0.00023049,0.0,0 STARLINK-3190,1 49766U 21115AU  22057.91667824 -.00023049  00000-0 -55214-3 0  9991,2 49766  53.2170 272.2556 0003455  17.1554 321.3656 15.40465127  3656,6822.873000000001,93.478,447.095,442.38,0.0
49766.0,STARLINK-3190,PAYLOAD,2022-02-27 06:00:00,15.4046846,0.0003401,53.2167,270.6842,15.9552,12.1449,-0.00039044,-0.00016433,0.0,0 STARLINK-3190,1 49766U 21115AU  22058.25001157 -.00016433  00000-0 -39044-3 0  9992,2 49766  53.2167 270.6842 0003401  15.9552  12.1449 15.40468460 14567,6822.863,93.478,447.048,442.407,0.0
49766.0,STARLINK-3190,PAYLOAD,2022-02-27 14:00:01,15.40461456,0.0003445,53.2176,269.105,17.2716,60.4849,-4.2131e-05,-2.137e-05,0.0,0 STARLINK-3190,1 49766U 21115AU  22058.58334491 -.00002137  00000-0 -42131-4 0  9996,2 49766  53.2176 269.1050 0003445  17.2716  60.4849 15.40461456 14610,6822.8830000000025,93.478,447.099,442.398,0.0
49766.0,STARLINK-3190,PAYLOAD,2022-02-27 22:00:00,15.40481477,0.0003568,53.2164,267.5442,17.7315,109.5689,0.0001708,6.631e-05,0.0,0 STARLINK-3190,1 49766U 21115AU  22058.91667824  .00006631  00000-0  17080-3 0  9997,2 49766  53.2164 267.5442 0003568  17.7315 109.5689 15.40481477  3654,6822.824000000001,93.477,447.124,442.255,0.0
49766.0,STARLINK-3190,PAYLOAD,2022-02-28 14:00:01,15.40511645,0.0003276999999999,53.2159,264.4012,17.6194,208.9269,-0.00083088,-0.00034482,0.0,0 STARLINK-3190,1 49766U 21115AU  22059.58334491 -.00034482  00000-0 -83088-3 0  9990,2 49766  53.2159 264.4012 0003277  17.6194 208.9269 15.40511645 14761,6822.735,93.475,446.836,442.364,0.0
49766.0,STARLINK-3190,PAYLOAD,2022-02-28 22:00:00,15.404604999999998,0.0003557,53.2156,262.8325,14.9189,261.2692,-2.5213e-05,-1.442e-05,0.0,0 STARLINK-3190,1 49766U 21115AU  22059.91667824 -.00001442  00000-0 -25213-4 0  9993,2 49766  53.2156 262.8325 0003557  14.9189 261.2692 15.40460500  3631,6822.886,93.479,447.17800000000005,442.324,0.0
